{"fetched_at":"2026-07-16T06:42:33.601Z","source":"https://celestrak.org/NORAD/elements/gp.php?GROUP=oneweb&FORMAT=JSON","constellation":"oneweb","records":[{"OBJECT_NAME":"ONEWEB-0206","OBJECT_ID":"2021-031T","EPOCH":"2026-07-15T17:32:45.678336","CLASSIFICATION_TYPE":"U","MEAN_MOTION":13.14502387,"ECCENTRICITY":0.00018842,"INCLINATION":87.8972,"RA_OF_ASC_NODE":284.012,"ARG_OF_PERICENTER":101.8588,"MEAN_ANOMALY":258.2753,"EPHEMERIS_TYPE":0,"NORAD_CAT_ID":48227,"ELEMENT_SET_NO":999,"REV_AT_EPOCH":25197,"BSTAR":-0.00045983801,"MEAN_MOTION_DOT":-0.00000158,"MEAN_MOTION_DDOT":0},{"OBJECT_NAME":"ONEWEB-0182","OBJECT_ID":"2021-031U","EPOCH":"2026-07-15T19:15:30.487680","CLASSIFICATION_TYPE":"U","MEAN_MOTION":13.14504285,"ECCENTRICITY":0.0001916,"INCLINATION":87.8968,"RA_OF_ASC_NODE":284.0044,"ARG_OF_PERICENTER":94.017,"MEAN_ANOMALY":266.1178,"EPHEMERIS_TYPE":0,"NORAD_CAT_ID":48228,"ELEMENT_SET_NO":999,"REV_AT_EPOCH":25219,"BSTAR":-0.00044439583,"MEAN_MOTION_DOT":-0.00000152,"MEAN_MOTION_DDOT":0},{"OBJECT_NAME":"ONEWEB-0186","OBJECT_ID":"2021-031V","EPOCH":"2026-07-15T17:41:53.865600","CLASSIFICATION_TYPE":"U","MEAN_MOTION":13.14503259,"ECCENTRICITY":0.00021363,"INCLINATION":87.8978,"RA_OF_ASC_NODE":284.0106,"ARG_OF_PERICENTER":97.4252,"MEAN_ANOMALY":262.712,"EPHEMERIS_TYPE":0,"NORAD_CAT_ID":48229,"ELEMENT_SET_NO":999,"REV_AT_EPOCH":25213,"BSTAR":-0.0005342836,"MEAN_MOTION_DOT":-0.00000185,"MEAN_MOTION_DDOT":0},{"OBJECT_NAME":"ONEWEB-0181","OBJECT_ID":"2021-031W","EPOCH":"2026-07-15T18:59:31.346592","CLASSIFICATION_TYPE":"U","MEAN_MOTION":13.14501805,"ECCENTRICITY":0.000221,"INCLINATION":87.8963,"RA_OF_ASC_NODE":284.0243,"ARG_OF_PERICENTER":98.3344,"MEAN_ANOMALY":261.8036,"EPHEMERIS_TYPE":0,"NORAD_CAT_ID":48230,"ELEMENT_SET_NO":999,"REV_AT_EPOCH":25199,"BSTAR":0.0001941045,"MEAN_MOTION_DOT":8.5e-7,"MEAN_MOTION_DDOT":0},{"OBJECT_NAME":"ONEWEB-0188","OBJECT_ID":"2021-031X","EPOCH":"2026-07-15T18:04:44.058144","CLASSIFICATION_TYPE":"U","MEAN_MOTION":13.14502411,"ECCENTRICITY":0.00020699,"INCLINATION":87.896,"RA_OF_ASC_NODE":284.0314,"ARG_OF_PERICENTER":97.7582,"MEAN_ANOMALY":262.3783,"EPHEMERIS_TYPE":0,"NORAD_CAT_ID":48231,"ELEMENT_SET_NO":999,"REV_AT_EPOCH":25189,"BSTAR":0.00005910004,"MEAN_MOTION_DOT":3.5e-7,"MEAN_MOTION_DDOT":0},{"OBJECT_NAME":"ONEWEB-0220","OBJECT_ID":"2021-031Y","EPOCH":"2026-07-15T19:01:50.477376","CLASSIFICATION_TYPE":"U","MEAN_MOTION":13.14493434,"ECCENTRICITY":0.00021951,"INCLINATION":87.8978,"RA_OF_ASC_NODE":284.0008,"ARG_OF_PERICENTER":92.0842,"MEAN_ANOMALY":268.0539,"EPHEMERIS_TYPE":0,"NORAD_CAT_ID":48232,"ELEMENT_SET_NO":999,"REV_AT_EPOCH":25216,"BSTAR":-0.00016862408,"MEAN_MOTION_DOT":-5e-7,"MEAN_MOTION_DDOT":0},{"OBJECT_NAME":"ONEWEB-0165","OBJECT_ID":"2021-031Z","EPOCH":"2026-07-15T17:53:19.261248","CLASSIFICATION_TYPE":"U","MEAN_MOTION":13.14503669,"ECCENTRICITY":0.00024505,"INCLINATION":87.8967,"RA_OF_ASC_NODE":284.0212,"ARG_OF_PERICENTER":101.5816,"MEAN_ANOMALY":258.5589,"EPHEMERIS_TYPE":0,"NORAD_CAT_ID":48233,"ELEMENT_SET_NO":999,"REV_AT_EPOCH":25211,"BSTAR":-0.00025387521,"MEAN_MOTION_DOT":-8.1e-7,"MEAN_MOTION_DDOT":0},{"OBJECT_NAME":"ONEWEB-0199","OBJECT_ID":"2021-031AA","EPOCH":"2026-07-15T17:30:29.150784","CLASSIFICATION_TYPE":"U","MEAN_MOTION":13.14502236,"ECCENTRICITY":0.0001891,"INCLINATION":87.8976,"RA_OF_ASC_NODE":284.0119,"ARG_OF_PERICENTER":100.8558,"MEAN_ANOMALY":259.2785,"EPHEMERIS_TYPE":0,"NORAD_CAT_ID":48234,"ELEMENT_SET_NO":999,"REV_AT_EPOCH":25201,"BSTAR":-0.00058428274,"MEAN_MOTION_DOT":-0.00000204,"MEAN_MOTION_DDOT":0},{"OBJECT_NAME":"ONEWEB-0203","OBJECT_ID":"2021-031AB","EPOCH":"2026-07-15T19:06:23.439168","CLASSIFICATION_TYPE":"U","MEAN_MOTION":13.14501819,"ECCENTRICITY":0.00020808,"INCLINATION":87.8975,"RA_OF_ASC_NODE":284.0012,"ARG_OF_PERICENTER":105.1757,"MEAN_ANOMALY":254.9603,"EPHEMERIS_TYPE":0,"NORAD_CAT_ID":48235,"ELEMENT_SET_NO":999,"REV_AT_EPOCH":25203,"BSTAR":-0.000056820655,"MEAN_MOTION_DOT":-8e-8,"MEAN_MOTION_DDOT":0},{"OBJECT_NAME":"ONEWEB-0197","OBJECT_ID":"2021-031AC","EPOCH":"2026-07-15T18:29:39.179904","CLASSIFICATION_TYPE":"U","MEAN_MOTION":13.14502348,"ECCENTRICITY":0.00019719,"INCLINATION":87.8964,"RA_OF_ASC_NODE":283.9907,"ARG_OF_PERICENTER":91.3968,"MEAN_ANOMALY":268.7387,"EPHEMERIS_TYPE":0,"NORAD_CAT_ID":48236,"ELEMENT_SET_NO":999,"REV_AT_EPOCH":25194,"BSTAR":0.00066950248,"MEAN_MOTION_DOT":0.00000261,"MEAN_MOTION_DDOT":0},{"OBJECT_NAME":"ONEWEB-0194","OBJECT_ID":"2021-031AD","EPOCH":"2026-07-15T18:00:09.573120","CLASSIFICATION_TYPE":"U","MEAN_MOTION":13.14503939,"ECCENTRICITY":0.00019513,"INCLINATION":87.8966,"RA_OF_ASC_NODE":284.0178,"ARG_OF_PERICENTER":105.502,"MEAN_ANOMALY":254.6325,"EPHEMERIS_TYPE":0,"NORAD_CAT_ID":48237,"ELEMENT_SET_NO":999,"REV_AT_EPOCH":25211,"BSTAR":0.00004018794,"MEAN_MOTION_DOT":2.8e-7,"MEAN_MOTION_DDOT":0},{"OBJECT_NAME":"ONEWEB-0193","OBJECT_ID":"2021-031AE","EPOCH":"2026-07-15T18:23:00.699648","CLASSIFICATION_TYPE":"U","MEAN_MOTION":13.14502674,"ECCENTRICITY":0.00018168,"INCLINATION":87.8967,"RA_OF_ASC_NODE":284.005,"ARG_OF_PERICENTER":110.5413,"MEAN_ANOMALY":249.5912,"EPHEMERIS_TYPE":0,"NORAD_CAT_ID":48238,"ELEMENT_SET_NO":999,"REV_AT_EPOCH":25206,"BSTAR":0.00055727607,"MEAN_MOTION_DOT":0.00000219,"MEAN_MOTION_DDOT":0},{"OBJECT_NAME":"ONEWEB-0191","OBJECT_ID":"2021-031AF","EPOCH":"2026-07-15T18:38:58.390944","CLASSIFICATION_TYPE":"U","MEAN_MOTION":13.14506187,"ECCENTRICITY":0.00019267,"INCLINATION":87.8977,"RA_OF_ASC_NODE":284.0033,"ARG_OF_PERICENTER":95.5221,"MEAN_ANOMALY":264.6129,"EPHEMERIS_TYPE":0,"NORAD_CAT_ID":48239,"ELEMENT_SET_NO":999,"REV_AT_EPOCH":25192,"BSTAR":0.00049298461,"MEAN_MOTION_DOT":0.00000196,"MEAN_MOTION_DDOT":0},{"OBJECT_NAME":"ONEWEB-0195","OBJECT_ID":"2021-031AG","EPOCH":"2026-07-15T18:05:52.499904","CLASSIFICATION_TYPE":"U","MEAN_MOTION":13.1450379,"ECCENTRICITY":0.00024555,"INCLINATION":87.8973,"RA_OF_ASC_NODE":284.0084,"ARG_OF_PERICENTER":99.7003,"MEAN_ANOMALY":260.4405,"EPHEMERIS_TYPE":0,"NORAD_CAT_ID":48240,"ELEMENT_SET_NO":999,"REV_AT_EPOCH":25190,"BSTAR":0.00020089581,"MEAN_MOTION_DOT":8.7e-7,"MEAN_MOTION_DDOT":0},{"OBJECT_NAME":"ONEWEB-0201","OBJECT_ID":"2021-031AH","EPOCH":"2026-07-15T17:48:56.486880","CLASSIFICATION_TYPE":"U","MEAN_MOTION":13.14502784,"ECCENTRICITY":0.00020379,"INCLINATION":87.8968,"RA_OF_ASC_NODE":284.0247,"ARG_OF_PERICENTER":91.0377,"MEAN_ANOMALY":269.0986,"EPHEMERIS_TYPE":0,"NORAD_CAT_ID":48241,"ELEMENT_SET_NO":999,"REV_AT_EPOCH":25213,"BSTAR":-0.00036806472,"MEAN_MOTION_DOT":-0.00000124,"MEAN_MOTION_DDOT":0},{"OBJECT_NAME":"ONEWEB-0207","OBJECT_ID":"2021-031AJ","EPOCH":"2026-07-15T19:09:47.782080","CLASSIFICATION_TYPE":"U","MEAN_MOTION":13.14501163,"ECCENTRICITY":0.00020388,"INCLINATION":87.8975,"RA_OF_ASC_NODE":283.9997,"ARG_OF_PERICENTER":91.8114,"MEAN_ANOMALY":268.3249,"EPHEMERIS_TYPE":0,"NORAD_CAT_ID":48242,"ELEMENT_SET_NO":999,"REV_AT_EPOCH":25205,"BSTAR":-0.00027681105,"MEAN_MOTION_DOT":-9e-7,"MEAN_MOTION_DDOT":0},{"OBJECT_NAME":"ONEWEB-0208","OBJECT_ID":"2021-031AK","EPOCH":"2026-07-15T18:43:33.428928","CLASSIFICATION_TYPE":"U","MEAN_MOTION":13.14502028,"ECCENTRICITY":0.000237,"INCLINATION":87.8971,"RA_OF_ASC_NODE":284.0091,"ARG_OF_PERICENTER":102.0164,"MEAN_ANOMALY":258.1231,"EPHEMERIS_TYPE":0,"NORAD_CAT_ID":48243,"ELEMENT_SET_NO":999,"REV_AT_EPOCH":25206,"BSTAR":0.00043038412,"MEAN_MOTION_DOT":0.00000172,"MEAN_MOTION_DDOT":0},{"OBJECT_NAME":"ONEWEB-0200","OBJECT_ID":"2021-031AL","EPOCH":"2026-07-15T17:51:02.488320","CLASSIFICATION_TYPE":"U","MEAN_MOTION":13.14502541,"ECCENTRICITY":0.00021256,"INCLINATION":87.898,"RA_OF_ASC_NODE":284.0056,"ARG_OF_PERICENTER":98.3881,"MEAN_ANOMALY":261.7489,"EPHEMERIS_TYPE":0,"NORAD_CAT_ID":48244,"ELEMENT_SET_NO":999,"REV_AT_EPOCH":25198,"BSTAR":-0.00049604429,"MEAN_MOTION_DOT":-0.00000171,"MEAN_MOTION_DDOT":0},{"OBJECT_NAME":"ONEWEB-0217","OBJECT_ID":"2021-031AM","EPOCH":"2026-07-15T18:13:52.368960","CLASSIFICATION_TYPE":"U","MEAN_MOTION":13.1450274,"ECCENTRICITY":0.00024164,"INCLINATION":87.8977,"RA_OF_ASC_NODE":284.0063,"ARG_OF_PERICENTER":102.1359,"MEAN_ANOMALY":258.0041,"EPHEMERIS_TYPE":0,"NORAD_CAT_ID":48245,"ELEMENT_SET_NO":999,"REV_AT_EPOCH":25193,"BSTAR":0.00034448103,"MEAN_MOTION_DOT":0.00000141,"MEAN_MOTION_DDOT":0},{"OBJECT_NAME":"ONEWEB-0211","OBJECT_ID":"2021-045A","EPOCH":"2026-07-15T22:14:06.016128","CLASSIFICATION_TYPE":"U","MEAN_MOTION":13.16197426,"ECCENTRICITY":0.00026934,"INCLINATION":87.8988,"RA_OF_ASC_NODE":253.3498,"ARG_OF_PERICENTER":105.5151,"MEAN_ANOMALY":254.6277,"EPHEMERIS_TYPE":0,"NORAD_CAT_ID":48767,"ELEMENT_SET_NO":999,"REV_AT_EPOCH":24822,"BSTAR":0.00015793542,"MEAN_MOTION_DOT":7.3e-7,"MEAN_MOTION_DDOT":0},{"OBJECT_NAME":"ONEWEB-0223","OBJECT_ID":"2021-045B","EPOCH":"2026-07-15T04:22:36.507072","CLASSIFICATION_TYPE":"U","MEAN_MOTION":13.15548662,"ECCENTRICITY":0.00023169,"INCLINATION":87.8993,"RA_OF_ASC_NODE":253.6143,"ARG_OF_PERICENTER":106.9013,"MEAN_ANOMALY":253.2371,"EPHEMERIS_TYPE":0,"NORAD_CAT_ID":48768,"ELEMENT_SET_NO":999,"REV_AT_EPOCH":24808,"BSTAR":-0.00010623731,"MEAN_MOTION_DOT":-2.7e-7,"MEAN_MOTION_DDOT":0},{"OBJECT_NAME":"ONEWEB-0230","OBJECT_ID":"2021-045C","EPOCH":"2026-07-15T12:49:09.335712","CLASSIFICATION_TYPE":"U","MEAN_MOTION":13.15548234,"ECCENTRICITY":0.00019143,"INCLINATION":87.8983,"RA_OF_ASC_NODE":253.5554,"ARG_OF_PERICENTER":96.4262,"MEAN_ANOMALY":263.7086,"EPHEMERIS_TYPE":0,"NORAD_CAT_ID":48769,"ELEMENT_SET_NO":999,"REV_AT_EPOCH":24839,"BSTAR":0.00045335594,"MEAN_MOTION_DOT":0.00000183,"MEAN_MOTION_DDOT":0},{"OBJECT_NAME":"ONEWEB-0237","OBJECT_ID":"2021-045D","EPOCH":"2026-07-15T03:25:33.874752","CLASSIFICATION_TYPE":"U","MEAN_MOTION":13.15548482,"ECCENTRICITY":0.00024042,"INCLINATION":87.8981,"RA_OF_ASC_NODE":253.6352,"ARG_OF_PERICENTER":96.2126,"MEAN_ANOMALY":263.9278,"EPHEMERIS_TYPE":0,"NORAD_CAT_ID":48770,"ELEMENT_SET_NO":999,"REV_AT_EPOCH":24806,"BSTAR":0.00038272934,"MEAN_MOTION_DOT":0.00000157,"MEAN_MOTION_DDOT":0}]}
